QBEE50-LTU-OC           
1 42708U 98067LR  17256.54022412  .00021936  00000-0  29119-3 0  9998
2 42708  51.6391 315.9399 0001554 316.6006  43.4864 15.58154877 18564
ALTAIR PATHFINDER       
1 42711U 98067LS  17256.59554771  .00015738  00000-0  22095-3 0  9994
2 42711  51.6398 316.3061 0003409 235.3358 124.7312 15.56899631 18275
SHARC                   
1 42712U 98067LT  17256.53171435  .00013992  00000-0  19832-3 0  9996
2 42712  51.6404 316.6358 0001492 243.7617 116.3222 15.56751456 18502
ZA-AEROSAT              
1 42713U 98067LU  17256.56636402  .00018295  00000-0  24992-3 0  9994
2 42713  51.6398 316.1153 0001273 242.0390 118.0474 15.57515477 18274
LINK                    
1 42714U 98067LV  17256.54578849  .00030292  00000-0  39313-3 0  9997
2 42714  51.6392 315.9742 0001256 278.1644  81.9206 15.58563027 18381
CSUNSAT 1               
1 42715U 98067LW  17256.57243878  .00021639  00000-0  29363-3 0  9991
2 42715  51.6397 316.1514 0003215 225.9417 134.1310 15.57572220 18271
UPSAT                   
1 42716U 98067LX  17256.53058494  .00028001  00000-0  36352-3 0  9992
2 42716  51.6398 315.8769 0004804 314.0934  45.9663 15.58588479 18409
SPACECUBE               
1 42717U 98067LY  17256.55008374  .00023477  00000-0  31276-3 0  9999
2 42717  51.6397 316.0061 0004662 312.5667  47.4931 15.58007101 17643
HOOPOE                  
1 42718U 98067LZ  17256.54034719  .00024419  00000-0  32122-3 0  9999
2 42718  51.6394 315.9430 0004665 312.5451  47.5147 15.58319494 17644
CHALLENGER              
1 42721U 98067MA  17256.53948760  .00035700  00000-0  45453-3 0  9998
2 42721  51.6388 315.9302 0007027 289.1899  70.8332 15.58963848 17349
NJUST-1                 
1 42722U 98067MB  17256.58918444  .00019138  00000-0  26346-3 0  9997
2 42722  51.6396 316.2644 0007021 285.2729  74.7487 15.57253902 17341
UNSW-ECO                
1 42723U 98067MC  17256.56745015  .00028167  00000-0  37282-3 0  9991
2 42723  51.6400 316.1227 0006901 287.7934  72.2305 15.58056106 17323
DUTHSAT                 
1 42724U 98067MD  17256.54922642  .00033286  00000-0  42757-3 0  9994
2 42724  51.6399 315.9992 0006284 294.6567  65.3770 15.58768989 17249
LILACSAT-1              
1 42725U 98067ME  17256.58972223  .00022601  00000-0  30787-3 0  9998
2 42725  51.6397 316.2700 0006116 290.5663  69.4673 15.57426621 17267
NSIGHT-1                
1 42726U 98067MF  17256.55573792  .00011654  00000-0  16888-3 0  9996
2 42726  51.6406 316.7944 0006108 288.2463  71.7864 15.56332662 17243
SNUSAT-1                
1 42727U 98067MG  17256.39519055  .00024455  00000-0  33171-3 0  9998
2 42727  51.6388 317.2132 0006716 246.3208 113.7080 15.57485943 17187
QBITO                   
1 42728U 98067MH  17256.57305728  .00026150  00000-0  34995-3 0  9998
2 42728  51.6407 316.1636 0003734 307.2185  52.8466 15.57822653 17055
AALTO-2                 
1 42729U 98067MJ  17256.57288496  .00025826  00000-0  34577-3 0  9996
2 42729  51.6400 316.1590 0003738 307.3174  52.7477 15.57818004 17068
SUSAT                   
1 42730U 98067MK  17256.57774053  .00022560  00000-0  30473-3 0  9990
2 42730  51.6400 316.1891 0003704 304.2075  55.8566 15.57665445 17065
I-INSPIRE II            
1 42731U 98067ML  17256.56339493  .00030327  00000-0  39817-3 0  9996
2 42731  51.6387 316.0860 0005697 233.7578 126.2888 15.58240338 17108
POLYITAN-2-SAU          
1 42732U 98067MM  17256.56991758  .00026035  00000-0  34727-3 0  9991
2 42732  51.6391 316.1293 0005936 232.1161 127.9295 15.57902329 17106
SNUSAT-1B               
1 42733U 98067MN  17256.57821242  .00023864  00000-0  32126-3 0  9991
2 42733  51.6394 316.1852 0005896 233.6622 126.3826 15.57709739 17107
EXALTA-1                
1 42734U 98067MP  17256.56380752  .00026920  00000-0  35503-3 0  9995
2 42734  51.6390 316.0911 0007778 260.0913  99.9201 15.58172201 17052
AOXIANG-1               
1 42735U 98067MQ  17256.58638669  .00019057  00000-0  26164-3 0  9997
2 42735  51.6396 316.2448 0007582 281.0217  78.9922 15.57325516 18471
BEEAGLESAT              
1 42736U 98067MR  17256.58363389  .00022226  00000-0  30213-3 0  9994
2 42736  51.6396 316.2266 0007451 281.0127  79.0027 15.57483678 17162
ATLANTIS                
1 42737U 98067MS  17256.56216121  .00050098  00000-0  59539-3 0  9994
2 42737  51.6381 315.3269 0007217 290.0934  69.9283 15.60618796 17062
PROGRESS-MS 06          
1 42756U 17033A   17253.57037387  .00005695  00000-0  93081-4 0  9996
2 42756  51.6444 332.6872 0003773 257.5892 179.1238 15.54166912 13723
ISS DEB (ROSA)          
1 42813U 98067MT  17256.54649616  .00052851  00000-0  66310-3 0  9990
2 42813  51.6390 316.7264 0003611 289.4078  70.6524 15.59193052 75514
SOYUZ-MS 05             
1 42898U 17043A   17253.57037387  .00005695  00000-0  93081-4 0  9994
2 42898  51.6444 332.6872 0003773 257.5892 179.1238 15.54166912  6834
DRAGON CRS-12           
1 42904U 17045A   17253.57037387  .00005695  00000-0  93081-4 0  9994
2 42904  51.6444 332.6872 0003773 257.5892 179.1238 15.54166912  4188
SOYUZ-MS 06             
1 42937U 17054A   17256.08022251 -.00000558  00000-0  00000+0 0  9991
2 42937  51.6429 320.2050 0025501  12.1159  76.0708 15.61104757    36
